[{"OBJECT_NAME":"STARLINK-5331","OBJECT_ID":"2023-010M","EPOCH":"2026-03-09T08:48:14.967360","MEAN_MOTION":14.98330483,"ECCENTRICITY":0.00030101,"INCLINATION":70.0003,"RA_OF_ASC_NODE":45.4191,"ARG_OF_PERICENTER":270.5317,"MEAN_ANOMALY":89.5498,"EPHEMERIS_TYPE":0,"CLASSIFICATION_TYPE":"U","NORAD_CAT_ID":55280,"ELEMENT_SET_NO":999,"REV_AT_EPOCH":17272,"BSTAR":8.8162973e-5,"MEAN_MOTION_DOT":9.59e-6,"MEAN_MOTION_DDOT":0},{"OBJECT_NAME":"SL-6 R\/B(2)","OBJECT_ID":"1990-055D","EPOCH":"2026-03-09T21:41:59.551872","MEAN_MOTION":15.03595553,"ECCENTRICITY":0.00247741,"INCLINATION":62.7825,"RA_OF_ASC_NODE":253.121,"ARG_OF_PERICENTER":347.1508,"MEAN_ANOMALY":12.8957,"EPHEMERIS_TYPE":0,"CLASSIFICATION_TYPE":"U","NORAD_CAT_ID":20666,"ELEMENT_SET_NO":999,"REV_AT_EPOCH":93822,"BSTAR":0.00020900577,"MEAN_MOTION_DOT":2.688e-5,"MEAN_MOTION_DDOT":0}]
